
    {
        "ARG_OF_PERICENTER": 66.482,
        "BSTAR": 0.00029978707,
        "CLASSIFICATION_TYPE": "U",
        "ECCENTRICITY": 0.01051728,
        "ELEMENT_SET_NO": 999,
        "EPHEMERIS_TYPE": 0,
        "EPOCH": "2026-05-21T10:13:32.641536",
        "INCLINATION": 64.7654,
        "MEAN_ANOMALY": 294.7306,
        "MEAN_MOTION": 15.01999836,
        "MEAN_MOTION_DDOT": 0,
        "MEAN_MOTION_DOT": 4.253e-05,
        "NORAD_CAT_ID": 40975,
        "OBJECT_ID": "2015-058M",
        "OBJECT_NAME": "SNAP-3 JIMI",
        "RA_OF_ASC_NODE": 304.4239,
        "REV_AT_EPOCH": 11020
    },
    {
        "ARG_OF_PERICENTER": 71.5451,
        "BSTAR": 0.00019514234,
        "CLASSIFICATION_TYPE": "U",
        "ECCENTRICITY": 0.01298353,
        "ELEMENT_SET_NO": 999,
        "EPHEMERIS_TYPE": 0,
        "EPOCH": "2026-05-21T01:32:44.086560",
        "INCLINATION": 64.7759,
        "MEAN_ANOMALY": 289.9722,
        "MEAN_MOTION": 14.89049298,
        "MEAN_MOTION_DDOT": 0,
        "MEAN_MOTION_DOT": 1.982e-05,
        "NORAD_CAT_ID": 40976,
        "OBJECT_ID": "2015-058N",
        "OBJECT_NAME": "PROPCUBE 1 (FLORA)",
        "RA_OF_ASC_NODE": 19.2869,
        "REV_AT_EPOCH": 11222
    },
    {
        "ARG_OF_PERICENTER": 68.7692,
        "BSTAR": 0.00024627325,
        "CLASSIFICATION_TYPE": "U",
        "ECCENTRICITY": 0.0118332,
        "ELEMENT_SET_NO": 999,
        "EPHEMERIS_TYPE": 0,
        "EPOCH": "2026-05-21T14:21:00.285408",
        "INCLINATION": 64.7734,
        "MEAN_ANOMALY": 292.6012,
        "MEAN_MOTION": 14.93789857,
        "MEAN_MOTION_DDOT": 0,
        "MEAN_MOTION_DOT": 2.826e-05,
        "NORAD_CAT_ID": 40977,
        "OBJECT_ID": "2015-058P",
        "OBJECT_NAME": "SINOD-D 3",
        "RA_OF_ASC_NODE": 358.8365,
        "REV_AT_EPOCH": 11078
    },
    {
        "ARG_OF_PERICENTER": 95.405,
        "BSTAR": 0.00075460487,
        "CLASSIFICATION_TYPE": "U",
        "ECCENTRICITY": 0.00040366,
        "ELEMENT_SET_NO": 999,
        "EPHEMERIS_TYPE": 0,
        "EPOCH": "2026-05-21T09:35:09.803328",
        "INCLINATION": 30.9883,
        "MEAN_ANOMALY": 264.7068,
        "MEAN_MOTION": 15.80437185,
        "MEAN_MOTION_DDOT": 0,
        "MEAN_MOTION_DOT": 0.00152227,
        "NORAD_CAT_ID": 41340,
        "OBJECT_ID": "2016-012D",
        "OBJECT_NAME": "HORYU-4",
        "RA_OF_ASC_NODE": 273.263,
        "REV_AT_EPOCH": 56655
    },
    {
        "ARG_OF_PERICENTER": 97.1288,
        "BSTAR": 0.00051091045,
        "CLASSIFICATION_TYPE": "U",
        "ECCENTRICITY": 0.00071146,
        "ELEMENT_SET_NO": 999,
        "EPHEMERIS_TYPE": 0,
        "EPOCH": "2026-05-21T15:09:24.720768",
        "INCLINATION": 97.992,
        "MEAN_ANOMALY": 263.0771,
        "MEAN_MOTION": 15.51970526,
        "MEAN_MOTION_DDOT": 0,
        "MEAN_MOTION_DOT": 0.00030701,
        "NORAD_CAT_ID": 41849,
        "OBJECT_ID": "2016-067B",
        "OBJECT_NAME": "RAVAN",
        "RA_OF_ASC_NODE": 28.1899,
        "REV_AT_EPOCH": 52357
    },
    {
        "ARG_OF_PERICENTER": 54.863,
        "BSTAR": 0.00016162934,
        "CLASSIFICATION_TYPE": "U",
        "ECCENTRICITY": 0.00013714,
        "ELEMENT_SET_NO": 999,
        "EPHEMERIS_TYPE": 0,
        "EPOCH": "2026-05-21T09:44:21.230592",
        "INCLINATION": 98.0703,
        "MEAN_ANOMALY": 305.2731,
        "MEAN_MOTION": 15.1938296,
        "MEAN_MOTION_DDOT": 0,
        "MEAN_MOTION_DOT": 3.341e-05,
        "NORAD_CAT_ID": 41850,
        "OBJECT_ID": "2016-067C",
        "OBJECT_NAME": "CELTEE 1",
        "RA_OF_ASC_NODE": 6.1473,
        "REV_AT_EPOCH": 52181
    },
    {
        "ARG_OF_PERICENTER": 203.1082,
        "BSTAR": 7.615554e-05,
        "CLASSIFICATION_TYPE": "U",
        "ECCENTRICITY": 0.00150213,
        "ELEMENT_SET_NO": 999,
        "EPHEMERIS_TYPE": 0,
        "EPOCH": "2026-05-21T13:34:18.780096",
        "INCLINATION": 98.0724,
        "MEAN_ANOMALY": 156.9471,
        "MEAN_MOTION": 15.09530313,
        "MEAN_MOTION_DDOT": 0,
        "MEAN_MOTION_DOT": 1.152e-05,
        "NORAD_CAT_ID": 41851,
        "OBJECT_ID": "2016-067D",
        "OBJECT_NAME": "OPTICUBE 04",
        "RA_OF_ASC_NODE": 352.459,
        "REV_AT_EPOCH": 52115
    },
    {
        "ARG_OF_PERICENTER": 202.6137,
        "BSTAR": 0.00021252796,
        "CLASSIFICATION_TYPE": "U",
        "ECCENTRICITY": 0.00025511,
        "ELEMENT_SET_NO": 999,
        "EPHEMERIS_TYPE": 0,
        "EPOCH": "2026-05-21T13:37:00.297984",
        "INCLINATION": 98.0713,
        "MEAN_ANOMALY": 157.4986,
        "MEAN_MOTION": 15.2397518,
        "MEAN_MOTION_DDOT": 0,
        "MEAN_MOTION_DOT": 5.062e-05,
        "NORAD_CAT_ID": 41852,
        "OBJECT_ID": "2016-067E",
        "OBJECT_NAME": "AEROCUBE 8D",
        "RA_OF_ASC_NODE": 9.7173,
        "REV_AT_EPOCH": 52201
    },
    {
        "ARG_OF_PERICENTER": 141.8657,
        "BSTAR": 0.00020692415,
        "CLASSIFICATION_TYPE": "U",
        "ECCENTRICITY": 0.00061888,
        "ELEMENT_SET_NO": 999,
        "EPHEMERIS_TYPE": 0,
        "EPOCH": "2026-05-21T04:51:55.150560",
        "INCLINATION": 98.0585,
        "MEAN_ANOMALY": 218.3018,
        "MEAN_MOTION": 15.24211253,
        "MEAN_MOTION_DDOT": 0,
        "MEAN_MOTION_DOT": 4.964e-05,
        "NORAD_CAT_ID": 41853,
        "OBJECT_ID": "2016-067F",
        "OBJECT_NAME": "AEROCUBE 8C",
        "RA_OF_ASC_NODE": 6.588,
        "REV_AT_EPOCH": 52195
    },
    {
        "ARG_OF_PERICENTER": 197.0527,
        "BSTAR": 0.00011689947,
        "CLASSIFICATION_TYPE": "U",
        "ECCENTRICITY": 0.0012673,
        "ELEMENT_SET_NO": 999,
        "EPHEMERIS_TYPE": 0,
        "EPOCH": "2026-05-21T10:07:28.428384",
        "INCLINATION": 97.4041,
        "MEAN_ANOMALY": 163.0277,
        "MEAN_MOTION": 15.06096869,
        "MEAN_MOTION_DDOT": 0,
        "MEAN_MOTION_DOT": 1.651e-05,
        "NORAD_CAT_ID": 42846,
        "OBJECT_ID": "2017-042X",
        "OBJECT_NAME": "CORVUS BC2",
        "RA_OF_ASC_NODE": 303.8205,
        "REV_AT_EPOCH": 48303
    },
    {
        "ARG_OF_PERICENTER": 173.239,
        "BSTAR": 0.00013283357,
        "CLASSIFICATION_TYPE": "U",
        "ECCENTRICITY": 0.00121199,
        "ELEMENT_SET_NO": 999,
        "EPHEMERIS_TYPE": 0,
        "EPOCH": "2026-05-21T10:04:05.693376",
        "INCLINATION": 97.4072,
        "MEAN_ANOMALY": 186.9003,
        "MEAN_MOTION": 15.06267692,
        "MEAN_MOTION_DDOT": 0,
        "MEAN_MOTION_DOT": 1.893e-05,
        "NORAD_CAT_ID": 42847,
        "OBJECT_ID": "2017-042Y",
        "OBJECT_NAME": "CORVUS BC1",
        "RA_OF_ASC_NODE": 304.6146,
        "REV_AT_EPOCH": 48306
    },
    {
        "ARG_OF_PERICENTER": 10.435,
        "BSTAR": 0.0004830282,
        "CLASSIFICATION_TYPE": "U",
        "ECCENTRICITY": 0.01101185,
        "ELEMENT_SET_NO": 999,
        "EPHEMERIS_TYPE": 0,
        "EPOCH": "2026-05-21T03:08:32.718336",
        "INCLINATION": 97.4655,
        "MEAN_ANOMALY": 349.9139,
        "MEAN_MOTION": 15.30862288,
        "MEAN_MOTION_DDOT": 0,
        "MEAN_MOTION_DOT": 0.0001733,
        "NORAD_CAT_ID": 43016,
        "OBJECT_ID": "2017-073D",
        "OBJECT_NAME": "MAKERSAT 0",
        "RA_OF_ASC_NODE": 23.4574,
        "REV_AT_EPOCH": 46232
    }